{
  "norad_id": 68377,
  "name": "SUPERVIEW NEO-2 OBJECT A",
  "history": [
    {
      "epoch": "2026-03-28T02:27:44.406720",
      "apogee_km": 511.10986744255933,
      "perigee_km": 499.86367826742025,
      "latitude_deg": -63.24474488560331,
      "longitude_deg": -52.450659200083464,
      "semi_major_axis_km": 6883.6237728549895,
      "eccentricity": 0.00081688,
      "inclination_deg": 97.4379,
      "raan_deg": 95.5549,
      "arg_perigee_deg": 263.6047,
      "mean_anomaly_deg": 96.4258,
      "mean_motion_rev_day": 15.20117201
    }
  ]
}